{
  "type": "FeatureCollection",
  "features": [
    {
      "type": "Feature",
      "id": "RISK-DIMA-HASAO",
      "properties": {
        "id": "RISK-DIMA-HASAO",
        "name": "Dima Hasao / Barail Range Landslide Vulnerability Zone",
        "riskLevel": "CRITICAL",
        "lhasaScore": 88,
        "rainfallMm": 142.5,
        "hazardType": "Landslide & Debris Flow"
      },
      "geometry": {
        "type": "Polygon",
        "coordinates": [
          [
            [92.5000, 25.4000],
            [93.2000, 25.4000],
            [93.4000, 25.0000],
            [92.6000, 24.9000],
            [92.5000, 25.4000]
          ]
        ]
      }
    },
    {
      "type": "Feature",
      "id": "RISK-KAZIRANGA",
      "properties": {
        "id": "RISK-KAZIRANGA",
        "name": "Central Brahmaputra Inundation & Slope Flash Zone (NH-37)",
        "riskLevel": "HIGH",
        "lhasaScore": 74,
        "rainfallMm": 115.0,
        "hazardType": "Flash Flood & Mudslip"
      },
      "geometry": {
        "type": "Polygon",
        "coordinates": [
          [
            [92.8000, 26.7000],
            [93.8000, 26.8000],
            [93.9000, 26.4000],
            [92.9000, 26.3000],
            [92.8000, 26.7000]
          ]
        ]
      }
    },
    {
      "type": "Feature",
      "id": "RISK-MEGHALAYA-SLOPE",
      "properties": {
        "id": "RISK-MEGHALAYA-SLOPE",
        "name": "East Khasi Hills / Jaintia Slope Failure Sector",
        "riskLevel": "HIGH",
        "lhasaScore": 68,
        "rainfallMm": 98.0,
        "hazardType": "Rockfall & Subsidence"
      },
      "geometry": {
        "type": "Polygon",
        "coordinates": [
          [
            [91.6000, 25.5000],
            [92.4000, 25.5000],
            [92.3000, 25.1000],
            [91.5000, 25.1000],
            [91.6000, 25.5000]
          ]
        ]
      }
    }
  ]
}
